QZS-1R                  
1 49336U 21096A   23352.61401325 -.00000243  00000+0  00000+0 0  9998
2 49336  35.5732  93.3067 0754739 271.1671  77.2963  1.00255847  7867
